{
    "links": {
        "self": "http://www.neowsapp.com/rest/v1/neo/3843879?api_key=iIulBulltgU6a56xZRHN4H3l9WmuAYTsLGpBGhQ2"
    },
    "id": "3843879",
    "neo_reference_id": "3843879",
    "name": "(2019 SH)",
    "designation": "2019 SH",
    "nasa_jpl_url": "http://ssd.jpl.nasa.gov/sbdb.cgi?sstr=3843879",
    "absolute_magnitude_h": 21.9,
    "estimated_diameter": {
        "kilometers": {
            "estimated_diameter_min": 0.1108038821,
            "estimated_diameter_max": 0.2477650126
        },
        "meters": {
            "estimated_diameter_min": 110.8038821264,
            "estimated_diameter_max": 247.7650126055
        },
        "miles": {
            "estimated_diameter_min": 0.068850319,
            "estimated_diameter_max": 0.1539539936
        },
        "feet": {
            "estimated_diameter_min": 363.5298086356,
            "estimated_diameter_max": 812.8773639568
        }
    },
    "is_potentially_hazardous_asteroid": true,
    "close_approach_data": [
        {
            "close_approach_date": "2019-09-23",
            "close_approach_date_full": "2019-Sep-23 12:22",
            "epoch_date_close_approach": 1569241320000,
            "relative_velocity": {
                "kilometers_per_second": "26.0428425505",
                "kilometers_per_hour": "93754.2331818306",
                "miles_per_hour": "58255.2345012325"
            },
            "miss_distance": {
                "astronomical": "0.0522861599",
                "lunar": "20.3393162011",
                "kilometers": "7821898.151519413",
                "miles": "4860302.1361493794"
            },
            "orbiting_body": "Earth"
        },
        {
            "close_approach_date": "2173-03-23",
            "close_approach_date_full": "2173-Mar-23 04:04",
            "epoch_date_close_approach": 6413141040000,
            "relative_velocity": {
                "kilometers_per_second": "27.2127427417",
                "kilometers_per_hour": "97965.8738701571",
                "miles_per_hour": "60872.1842389318"
            },
            "miss_distance": {
                "astronomical": "0.0633185411",
                "lunar": "24.6309124879",
                "kilometers": "9472318.880067457",
                "miles": "5885826.0226946266"
            },
            "orbiting_body": "Earth"
        }
    ],
    "orbital_data": {
        "orbit_id": "4",
        "orbit_determination_date": "2019-09-22 05:56:39",
        "first_observation_date": "2019-09-17",
        "last_observation_date": "2019-09-22",
        "data_arc_in_days": 5,
        "observations_used": 126,
        "orbit_uncertainty": "8",
        "minimum_orbit_intersection": ".0306185",
        "jupiter_tisserand_invariant": "4.874",
        "epoch_osculation": "2458745.5",
        "eccentricity": ".4749427937510811",
        "semi_major_axis": "1.217724188919286",
        "inclination": "45.14324336255933",
        "ascending_node_longitude": "179.1525722592069",
        "orbital_period": "490.8195199226675",
        "perihelion_distance": ".6393748606156909",
        "perihelion_argument": "272.9970290321825",
        "aphelion_distance": "1.796073517222881",
        "perihelion_time": "2458806.497831084958",
        "mean_anomaly": "315.2600939872059",
        "mean_motion": ".7334671613238219",
        "equinox": "J2000",
        "orbit_class": {
            "orbit_class_type": "APO",
            "orbit_class_description": "Near-Earth asteroid orbits which cross the Earth’s orbit similar to that of 1862 Apollo",
            "orbit_class_range": "a (semi-major axis) > 1.0 AU; q (perihelion) < 1.017 AU"
        }
    },
    "is_sentry_object": false
}